CCSDS_OMM_VERS = 2.0
CREATION_DATE  = 
ORIGINATOR     = 

OBJECT_NAME    = STARLINK-36720
OBJECT_ID      = 2026-022H
CENTER_NAME    = EARTH
REF_FRAME      = TEME
TIME_SYSTEM    = UTC
MEAN_ELEMENT_THEORY = SGP/SGP4

EPOCH          = 2026-02-20T16:36:58.679712
MEAN_MOTION    = 15.75249993
ECCENTRICITY   = .0001619
INCLINATION    = 97.2834
RA_OF_ASC_NODE = 84.8380
ARG_OF_PERICENTER = 113.9653
MEAN_ANOMALY   = 246.1782

EPHEMERIS_TYPE = 0
CLASSIFICATION_TYPE = U
NORAD_CAT_ID   = 67655
ELEMENT_SET_NO = 999
REV_AT_EPOCH   = 287
BSTAR          = .14879E-2
MEAN_MOTION_DOT = .228433E-2
MEAN_MOTION_DDOT = 0

CCSDS_OMM_VERS = 2.0
CREATION_DATE  = 
ORIGINATOR     = 

OBJECT_NAME    = STARLINK-36688
OBJECT_ID      = 2026-022J
CENTER_NAME    = EARTH
REF_FRAME      = TEME
TIME_SYSTEM    = UTC
MEAN_ELEMENT_THEORY = SGP/SGP4

EPOCH          = 2026-02-20T16:35:59.228736
MEAN_MOTION    = 15.75198805
ECCENTRICITY   = .0003124
INCLINATION    = 97.2838
RA_OF_ASC_NODE = 84.8382
ARG_OF_PERICENTER = 57.6335
MEAN_ANOMALY   = 302.5232

EPHEMERIS_TYPE = 0
CLASSIFICATION_TYPE = U
NORAD_CAT_ID   = 67656
ELEMENT_SET_NO = 999
REV_AT_EPOCH   = 287
BSTAR          = .1695E-2
MEAN_MOTION_DOT = .26069E-2
MEAN_MOTION_DDOT = 0

CCSDS_OMM_VERS = 2.0
CREATION_DATE  = 
ORIGINATOR     = 

OBJECT_NAME    = STARLINK-36706
OBJECT_ID      = 2026-022K
CENTER_NAME    = EARTH
REF_FRAME      = TEME
TIME_SYSTEM    = UTC
MEAN_ELEMENT_THEORY = SGP/SGP4

EPOCH          = 2026-02-20T16:33:55.705248
MEAN_MOTION    = 15.75249523
ECCENTRICITY   = .0001232
INCLINATION    = 97.2837
RA_OF_ASC_NODE = 84.8392
ARG_OF_PERICENTER = 110.8661
MEAN_ANOMALY   = 249.2737

EPHEMERIS_TYPE = 0
CLASSIFICATION_TYPE = U
NORAD_CAT_ID   = 67657
ELEMENT_SET_NO = 999
REV_AT_EPOCH   = 287
BSTAR          = .14481E-2
MEAN_MOTION_DOT = .222143E-2
MEAN_MOTION_DDOT = 0

CCSDS_OMM_VERS = 2.0
CREATION_DATE  = 
ORIGINATOR     = 

OBJECT_NAME    = STARLINK-36701
OBJECT_ID      = 2026-022L
CENTER_NAME    = EARTH
REF_FRAME      = TEME
TIME_SYSTEM    = UTC
MEAN_ELEMENT_THEORY = SGP/SGP4

EPOCH          = 2026-02-20T16:32:24.267264
MEAN_MOTION    = 15.75231145
ECCENTRICITY   = .0001256
INCLINATION    = 97.2835
RA_OF_ASC_NODE = 84.8414
ARG_OF_PERICENTER = 99.9564
MEAN_ANOMALY   = 260.1843

EPHEMERIS_TYPE = 0
CLASSIFICATION_TYPE = U
NORAD_CAT_ID   = 67658
ELEMENT_SET_NO = 999
REV_AT_EPOCH   = 287
BSTAR          = .11531E-2
MEAN_MOTION_DOT = .175763E-2
MEAN_MOTION_DDOT = 0

CCSDS_OMM_VERS = 2.0
CREATION_DATE  = 
ORIGINATOR     = 

OBJECT_NAME    = STARLINK-36642
OBJECT_ID      = 2026-022M
CENTER_NAME    = EARTH
REF_FRAME      = TEME
TIME_SYSTEM    = UTC
MEAN_ELEMENT_THEORY = SGP/SGP4

EPOCH          = 2026-02-20T16:30:53.150688
MEAN_MOTION    = 15.75228052
ECCENTRICITY   = .0002096
INCLINATION    = 97.2835
RA_OF_ASC_NODE = 84.8433
ARG_OF_PERICENTER = 70.8086
MEAN_ANOMALY   = 289.3406

EPHEMERIS_TYPE = 0
CLASSIFICATION_TYPE = U
NORAD_CAT_ID   = 67659
ELEMENT_SET_NO = 999
REV_AT_EPOCH   = 287
BSTAR          = .1189E-2
MEAN_MOTION_DOT = .181343E-2
MEAN_MOTION_DDOT = 0

CCSDS_OMM_VERS = 2.0
CREATION_DATE  = 
ORIGINATOR     = 

OBJECT_NAME    = STARLINK-36673
OBJECT_ID      = 2026-022N
CENTER_NAME    = EARTH
REF_FRAME      = TEME
TIME_SYSTEM    = UTC
MEAN_ELEMENT_THEORY = SGP/SGP4

EPOCH          = 2026-02-20T18:00:19.606752
MEAN_MOTION    = 15.75225534
ECCENTRICITY   = .0001371
INCLINATION    = 97.2838
RA_OF_ASC_NODE = 84.9110
ARG_OF_PERICENTER = 92.9597
MEAN_ANOMALY   = 267.1825

EPHEMERIS_TYPE = 0
CLASSIFICATION_TYPE = U
NORAD_CAT_ID   = 67660
ELEMENT_SET_NO = 999
REV_AT_EPOCH   = 288
BSTAR          = .88553E-3
MEAN_MOTION_DOT = .134254E-2
MEAN_MOTION_DDOT = 0

CCSDS_OMM_VERS = 2.0
CREATION_DATE  = 
ORIGINATOR     = 

OBJECT_NAME    = STARLINK-36674
OBJECT_ID      = 2026-022P
CENTER_NAME    = EARTH
REF_FRAME      = TEME
TIME_SYSTEM    = UTC
MEAN_ELEMENT_THEORY = SGP/SGP4

EPOCH          = 2026-02-20T17:58:17.681664
MEAN_MOTION    = 15.75267915
ECCENTRICITY   = .000155
INCLINATION    = 97.2835
RA_OF_ASC_NODE = 84.9131
ARG_OF_PERICENTER = 90.1247
MEAN_ANOMALY   = 270.0196

EPHEMERIS_TYPE = 0
CLASSIFICATION_TYPE = U
NORAD_CAT_ID   = 67661
ELEMENT_SET_NO = 999
REV_AT_EPOCH   = 288
BSTAR          = .16521E-2
MEAN_MOTION_DOT = .254637E-2
MEAN_MOTION_DDOT = 0

CCSDS_OMM_VERS = 2.0
CREATION_DATE  = 
ORIGINATOR     = 

OBJECT_NAME    = STARLINK-36700
OBJECT_ID      = 2026-022Q
CENTER_NAME    = EARTH
REF_FRAME      = TEME
TIME_SYSTEM    = UTC
MEAN_ELEMENT_THEORY = SGP/SGP4

EPOCH          = 2026-02-20T17:55:14.667456
MEAN_MOTION    = 15.75275565
ECCENTRICITY   = .0001538
INCLINATION    = 97.2836
RA_OF_ASC_NODE = 84.9155
ARG_OF_PERICENTER = 104.1194
MEAN_ANOMALY   = 256.0243

EPHEMERIS_TYPE = 0
CLASSIFICATION_TYPE = U
NORAD_CAT_ID   = 67662
ELEMENT_SET_NO = 999
REV_AT_EPOCH   = 288
BSTAR          = .16928E-2
MEAN_MOTION_DOT = .261197E-2
MEAN_MOTION_DDOT = 0

CCSDS_OMM_VERS = 2.0
CREATION_DATE  = 
ORIGINATOR     = 

OBJECT_NAME    = STARLINK-36675
OBJECT_ID      = 2026-022R
CENTER_NAME    = EARTH
REF_FRAME      = TEME
TIME_SYSTEM    = UTC
MEAN_ELEMENT_THEORY = SGP/SGP4

EPOCH          = 2026-02-20T17:57:16.707456
MEAN_MOTION    = 15.75239657
ECCENTRICITY   = .0001586
INCLINATION    = 97.2838
RA_OF_ASC_NODE = 84.9141
ARG_OF_PERICENTER = 84.3707
MEAN_ANOMALY   = 275.7740

EPHEMERIS_TYPE = 0
CLASSIFICATION_TYPE = U
NORAD_CAT_ID   = 67663
ELEMENT_SET_NO = 999
REV_AT_EPOCH   = 288
BSTAR          = .11329E-2
MEAN_MOTION_DOT = .172678E-2
MEAN_MOTION_DDOT = 0

CCSDS_OMM_VERS = 2.0
CREATION_DATE  = 
ORIGINATOR     = 

OBJECT_NAME    = STARLINK-36404
OBJECT_ID      = 2026-022S
CENTER_NAME    = EARTH
REF_FRAME      = TEME
TIME_SYSTEM    = UTC
MEAN_ELEMENT_THEORY = SGP/SGP4

EPOCH          = 2026-02-20T17:52:42.205152
MEAN_MOTION    = 15.75243449
ECCENTRICITY   = .0001261
INCLINATION    = 97.2839
RA_OF_ASC_NODE = 84.9171
ARG_OF_PERICENTER = 83.2699
MEAN_ANOMALY   = 276.8710

EPHEMERIS_TYPE = 0
CLASSIFICATION_TYPE = U
NORAD_CAT_ID   = 67664
ELEMENT_SET_NO = 999
REV_AT_EPOCH   = 288
BSTAR          = .11339E-2
MEAN_MOTION_DOT = .172864E-2
MEAN_MOTION_DDOT = 0

CCSDS_OMM_VERS = 2.0
CREATION_DATE  = 
ORIGINATOR     = 

OBJECT_NAME    = STARLINK-36399
OBJECT_ID      = 2026-022T
CENTER_NAME    = EARTH
REF_FRAME      = TEME
TIME_SYSTEM    = UTC
MEAN_ELEMENT_THEORY = SGP/SGP4

EPOCH          = 2026-02-20T16:20:12.087744
MEAN_MOTION    = 15.75245431
ECCENTRICITY   = .0001326
INCLINATION    = 97.2837
RA_OF_ASC_NODE = 84.8519
ARG_OF_PERICENTER = 162.6502
MEAN_ANOMALY   = 197.4809

EPHEMERIS_TYPE = 0
CLASSIFICATION_TYPE = U
NORAD_CAT_ID   = 67665
ELEMENT_SET_NO = 999
REV_AT_EPOCH   = 287
BSTAR          = .12561E-2
MEAN_MOTION_DOT = .191951E-2
MEAN_MOTION_DDOT = 0

CCSDS_OMM_VERS = 2.0
CREATION_DATE  = 
ORIGINATOR     = 

OBJECT_NAME    = STARLINK-36365
OBJECT_ID      = 2026-022U
CENTER_NAME    = EARTH
REF_FRAME      = TEME
TIME_SYSTEM    = UTC
MEAN_ELEMENT_THEORY = SGP/SGP4

EPOCH          = 2026-02-20T13:15:13.118688
MEAN_MOTION    = 15.75206836
ECCENTRICITY   = .0001707
INCLINATION    = 97.2834
RA_OF_ASC_NODE = 84.7207
ARG_OF_PERICENTER = 107.0418
MEAN_ANOMALY   = 253.1035

EPHEMERIS_TYPE = 0
CLASSIFICATION_TYPE = U
NORAD_CAT_ID   = 67666
ELEMENT_SET_NO = 999
REV_AT_EPOCH   = 285
BSTAR          = .10204E-2
MEAN_MOTION_DOT = .154974E-2
MEAN_MOTION_DDOT = 0

