STARLINK-36720          
1 67655U 26022H   26051.69234583  .00228433  00000+0  14879-2 0  9997
2 67655  97.2834  84.8380 0001619 113.9653 246.1782 15.75249993  2871
STARLINK-36688          
1 67656U 26022J   26051.69165774  .00260690  00000+0  16950-2 0  9996
2 67656  97.2838  84.8382 0003124  57.6335 302.5232 15.75198805  2874
STARLINK-36706          
1 67657U 26022K   26051.69022807  .00222143  00000+0  14481-2 0  9994
2 67657  97.2837  84.8392 0001232 110.8661 249.2737 15.75249523  2878
STARLINK-36701          
1 67658U 26022L   26051.68916976  .00175763  00000+0  11531-2 0  9991
2 67658  97.2835  84.8414 0001256  99.9564 260.1843 15.75231145  2878
STARLINK-36642          
1 67659U 26022M   26051.68811517  .00181343  00000+0  11890-2 0  9996
2 67659  97.2835  84.8433 0002096  70.8086 289.3406 15.75228052  2871
STARLINK-36673          
1 67660U 26022N   26051.75022693  .00134254  00000+0  88553-3 0  9995
2 67660  97.2838  84.9110 0001371  92.9597 267.1825 15.75225534  2888
STARLINK-36674          
1 67661U 26022P   26051.74881576  .00254637  00000+0  16521-2 0  9991
2 67661  97.2835  84.9131 0001550  90.1247 270.0196 15.75267915  2883
STARLINK-36700          
1 67662U 26022Q   26051.74669754  .00261197  00000+0  16928-2 0  9994
2 67662  97.2836  84.9155 0001538 104.1194 256.0243 15.75275565  2881
STARLINK-36675          
1 67663U 26022R   26051.74811004  .00172678  00000+0  11329-2 0  9997
2 67663  97.2838  84.9141 0001586  84.3707 275.7740 15.75239657  2883
STARLINK-36404          
1 67664U 26022S   26051.74493293  .00172864  00000+0  11339-2 0  9992
2 67664  97.2839  84.9171 0001261  83.2699 276.8710 15.75243449  2889
STARLINK-36399          
1 67665U 26022T   26051.68069546  .00191951  00000+0  12561-2 0  9992
2 67665  97.2837  84.8519 0001326 162.6502 197.4809 15.75245431  2879
STARLINK-36365          
1 67666U 26022U   26051.55223517  .00154974  00000+0  10204-2 0  9995
2 67666  97.2834  84.7207 0001707 107.0418 253.1035 15.75206836  2857
